[Satellite]
VERSION=1.1
NAME=CZ-6A DEB
NICKNAME=CZ-6A DEB
TLE1=1 54507U 22151JK  22341.94989546  .00103836  00000+0  29992-1 0  9990
TLE2=2 54507  98.6044 346.3303 0111939 225.1009 134.1052 14.40321160  3471
STATUS=0
